[{"OBJECT_NAME":"IRIDIUM 123","OBJECT_ID":"2017-039B","EPOCH":"2026-03-09T22:21:18.884448","MEAN_MOTION":14.34218976,"ECCENTRICITY":0.00019684,"INCLINATION":86.3973,"RA_OF_ASC_NODE":35.1027,"ARG_OF_PERICENTER":83.6618,"MEAN_ANOMALY":276.4802,"EPHEMERIS_TYPE":0,"CLASSIFICATION_TYPE":"U","NORAD_CAT_ID":42804,"ELEMENT_SET_NO":999,"REV_AT_EPOCH":45572,"BSTAR":0.00013835042,"MEAN_MOTION_DOT":4.07e-6,"MEAN_MOTION_DDOT":0},{"OBJECT_NAME":"CZ-6A DEB","OBJECT_ID":"2022-151LZ","EPOCH":"2026-03-09T01:15:25.634592","MEAN_MOTION":14.52942583,"ECCENTRICITY":0.00938693,"INCLINATION":98.6172,"RA_OF_ASC_NODE":119.2423,"ARG_OF_PERICENTER":248.2848,"MEAN_ANOMALY":110.8334,"EPHEMERIS_TYPE":0,"CLASSIFICATION_TYPE":"U","NORAD_CAT_ID":54573,"ELEMENT_SET_NO":999,"REV_AT_EPOCH":17448,"BSTAR":0.0011464751,"MEAN_MOTION_DOT":4.957e-5,"MEAN_MOTION_DDOT":0}]
